start=new Date('2022-02-19T00:00:00.000Z').valueOf();
sats=[{"MEAN_MOTION":"15.51632363","PERIOD":"92.805","RA_OF_ASC_NODE":"347.6990","SITE":"AFETR","RCS_SIZE":"LARGE","SEMIMAJOR_AXIS":"6790.097","INCLINATION":"53.2175","OBJECT_TYPE":"PAYLOAD","MEAN_ELEMENT_THEORY":"SGP4","MEAN_MOTION_DOT":"-0.00654048","OBJECT_ID":"2022-001AN","REV_AT_EPOCH":"367","MEAN_ANOMALY":"288.0847","TLE_LINE2":"2 50839  53.2175 347.6990 0001363  50.2435 288.0847 15.51632363  3678","EPOCH":"2022-02-18T20:00:01.000224","GP_ID":"196335650","REF_FRAME":"TEME","ELEMENT_SET_NO":"999","PERIAPSIS":"411.036","TIME_SYSTEM":"UTC","LAUNCH_DATE":"2022-01-06","MEAN_MOTION_DDOT":"0.0000000000000","CENTER_NAME":"EARTH","FILE":"3307132","BSTAR":"-0.01175100000000","CLASSIFICATION_TYPE":"U","COUNTRY_CODE":"US","ECCENTRICITY":"0.00013630","NORAD_CAT_ID":"50839","EPHEMERIS_TYPE":"0","DECAY_DATE":null,"ARG_OF_PERICENTER":"50.2435","OBJECT_NAME":"STARLINK-3320","TLE_LINE1":"1 50839U 22001AN  22049.83334491 -.00654048  00000-0 -11751-1 0  9997","APOAPSIS":"412.887"},{"FILE":"3307132","CLASSIFICATION_TYPE":"U","BSTAR":"-0.01170400000000","CENTER_NAME":"EARTH","DECAY_DATE":null,"ARG_OF_PERICENTER":"37.3427","EPHEMERIS_TYPE":"0","ECCENTRICITY":"0.00016100","COUNTRY_CODE":"US","NORAD_CAT_ID":"50840","APOAPSIS":"412.714","TLE_LINE1":"1 50840U 22001AP  22049.83334491 -.00654213  00000-0 -11704-1 0  9991","OBJECT_NAME":"STARLINK-3295","ELEMENT_SET_NO":"999","PERIAPSIS":"410.527","TIME_SYSTEM":"UTC","MEAN_MOTION_DDOT":"0.0000000000000","LAUNCH_DATE":"2022-01-06","MEAN_ANOMALY":"308.0962","REV_AT_EPOCH":"367","OBJECT_ID":"2022-001AP","TLE_LINE2":"2 50840  53.2175 347.6984 0001610  37.3427 308.0962 15.51749311  3678","EPOCH":"2022-02-18T20:00:01.000224","GP_ID":"196334901","REF_FRAME":"TEME","PERIOD":"92.798","MEAN_MOTION":"15.51749311","SITE":"AFETR","RA_OF_ASC_NODE":"347.6984","OBJECT_TYPE":"PAYLOAD","INCLINATION":"53.2175","SEMIMAJOR_AXIS":"6789.755","RCS_SIZE":"LARGE","MEAN_ELEMENT_THEORY":"SGP4","MEAN_MOTION_DOT":"-0.00654213"},{"EPOCH":"2022-02-18T20:00:01.000224","REF_FRAME":"TEME","GP_ID":"196335151","OBJECT_ID":"2022-001AQ","REV_AT_EPOCH":"367","MEAN_ANOMALY":"287.0757","TLE_LINE2":"2 50841  53.2175 347.6999 0001679  36.9258 287.0757 15.51398727  3676","RCS_SIZE":"LARGE","SEMIMAJOR_AXIS":"6790.778","INCLINATION":"53.2175","OBJECT_TYPE":"PAYLOAD","MEAN_MOTION_DOT":"-0.00654387","MEAN_ELEMENT_THEORY":"SGP4","MEAN_MOTION":"15.51398727","PERIOD":"92.819","RA_OF_ASC_NODE":"347.6999","SITE":"AFETR","ECCENTRICITY":"0.00016790","COUNTRY_CODE":"US","NORAD_CAT_ID":"50841","EPHEMERIS_TYPE":"0","DECAY_DATE":null,"ARG_OF_PERICENTER":"36.9258","OBJECT_NAME":"STARLINK-3300","TLE_LINE1":"1 50841U 22001AQ  22049.83334491 -.00654387  00000-0 -11856-1 0  9992","APOAPSIS":"413.784","CENTER_NAME":"EARTH","FILE":"3307132","BSTAR":"-0.01185600000000","CLASSIFICATION_TYPE":"U","TIME_SYSTEM":"UTC","LAUNCH_DATE":"2022-01-06","MEAN_MOTION_DDOT":"0.0000000000000","ELEMENT_SET_NO":"999","PERIAPSIS":"411.503"},{"DECAY_DATE":null,"ARG_OF_PERICENTER":"34.5568","COUNTRY_CODE":"US","NORAD_CAT_ID":"50842","ECCENTRICITY":"0.00016730","EPHEMERIS_TYPE":"0","APOAPSIS":"412.415","OBJECT_NAME":"STARLINK-3302","TLE_LINE1":"1 50842U 22001AR  22049.83334491 -.00654134  00000-0 -11653-1 0  9998","FILE":"3307132","BSTAR":"-0.01165300000000","CLASSIFICATION_TYPE":"U","CENTER_NAME":"EARTH","TIME_SYSTEM":"UTC","MEAN_MOTION_DDOT":"0.0000000000000","LAUNCH_DATE":"2022-01-06","ELEMENT_SET_NO":"999","PERIAPSIS":"410.144","EPOCH":"2022-02-18T20:00:01.000224","REF_FRAME":"TEME","GP_ID":"196335403","REV_AT_EPOCH":"367","MEAN_ANOMALY":"317.9577","OBJECT_ID":"2022-001AR","TLE_LINE2":"2 50842  53.2175 347.6977 0001673  34.5568 317.9577 15.51866192  3674","INCLINATION":"53.2175","OBJECT_TYPE":"PAYLOAD","RCS_SIZE":"LARGE","SEMIMAJOR_AXIS":"6789.415","MEAN_MOTION_DOT":"-0.00654134","MEAN_ELEMENT_THEORY":"SGP4","MEAN_MOTION":"15.51866192","PERIOD":"92.792","SITE":"AFETR","RA_OF_ASC_NODE":"347.6977"},{"MEAN_ELEMENT_THEORY":"SGP4","MEAN_MOTION_DOT":"-0.00654272","INCLINATION":"53.2175","OBJECT_TYPE":"PAYLOAD","RCS_SIZE":"LARGE","SEMIMAJOR_AXIS":"6791.461","SITE":"AFETR","RA_OF_ASC_NODE":"347.7006","MEAN_MOTION":"15.51164890","PERIOD":"92.833","REF_FRAME":"TEME","GP_ID":"196336150","EPOCH":"2022-02-18T20:00:01.000224","TLE_LINE2":"2 50843  53.2175 347.7006 0001630  38.8652 270.6691 15.51164890  3671","REV_AT_EPOCH":"367","MEAN_ANOMALY":"270.6691","OBJECT_ID":"2022-001AS","MEAN_MOTION_DDOT":"0.0000000000000","LAUNCH_DATE":"2022-01-06","TIME_SYSTEM":"UTC","PERIAPSIS":"412.219","ELEMENT_SET_NO":"999","APOAPSIS":"414.433","OBJECT_NAME":"STARLINK-3325","TLE_LINE1":"1 50843U 22001AS  22049.83334491 -.00654272  00000-0 -11954-1 0  9996","DECAY_DATE":null,"ARG_OF_PERICENTER":"38.8652","COUNTRY_CODE":"US","ECCENTRICITY":"0.00016300","NORAD_CAT_ID":"50843","EPHEMERIS_TYPE":"0","FILE":"3307132","BSTAR":"-0.01195400000000","CLASSIFICATION_TYPE":"U","CENTER_NAME":"EARTH"},{"TIME_SYSTEM":"UTC","LAUNCH_DATE":"2022-01-06","MEAN_MOTION_DDOT":"0.0000000000000","ELEMENT_SET_NO":"999","PERIAPSIS":"409.250","EPHEMERIS_TYPE":"0","NORAD_CAT_ID":"50844","COUNTRY_CODE":"US","ECCENTRICITY":"0.00014830","DECAY_DATE":null,"ARG_OF_PERICENTER":"40.5736","TLE_LINE1":"1 50844U 22001AT  22049.83334491 -.00653990  00000-0 -11504-1 0  9994","OBJECT_NAME":"STARLINK-3326","APOAPSIS":"411.264","CENTER_NAME":"EARTH","CLASSIFICATION_TYPE":"U","FILE":"3307132","BSTAR":"-0.01150400000000","SEMIMAJOR_AXIS":"6788.392","RCS_SIZE":"LARGE","OBJECT_TYPE":"PAYLOAD","INCLINATION":"53.2175","MEAN_MOTION_DOT":"-0.00653990","MEAN_ELEMENT_THEORY":"SGP4","PERIOD":"92.771","MEAN_MOTION":"15.52216845","RA_OF_ASC_NODE":"347.6954","SITE":"AFETR","EPOCH":"2022-02-18T20:00:01.000224","REF_FRAME":"TEME","GP_ID":"196334402","OBJECT_ID":"2022-001AT","REV_AT_EPOCH":"368","MEAN_ANOMALY":"332.9565","TLE_LINE2":"2 50844  53.2175 347.6954 0001483  40.5736 332.9565 15.52216845  3684"},{"ELEMENT_SET_NO":"999","PERIAPSIS":"407.269","TIME_SYSTEM":"UTC","MEAN_MOTION_DDOT":"0.0000000000000","LAUNCH_DATE":"2022-01-06","BSTAR":"-0.01119000000000","FILE":"3307132","CLASSIFICATION_TYPE":"U","CENTER_NAME":"EARTH","DECAY_DATE":null,"ARG_OF_PERICENTER":"86.6146","NORAD_CAT_ID":"50845","COUNTRY_CODE":"US","ECCENTRICITY":"0.00010920","EPHEMERIS_TYPE":"0","APOAPSIS":"408.751","OBJECT_NAME":"STARLINK-3230","TLE_LINE1":"1 50845U 22001AU  22049.83334491 -.00654128  00000-0 -11190-1 0  9990","MEAN_MOTION":"15.52987872","PERIOD":"92.724","SITE":"AFETR","RA_OF_ASC_NODE":"347.7043","INCLINATION":"53.2175","OBJECT_TYPE":"PAYLOAD","RCS_SIZE":"LARGE","SEMIMAJOR_AXIS":"6786.145","MEAN_MOTION_DOT":"-0.00654128","MEAN_ELEMENT_THEORY":"SGP4","MEAN_ANOMALY":"320.1196","REV_AT_EPOCH":"367","OBJECT_ID":"2022-001AU","TLE_LINE2":"2 50845  53.2175 347.7043 0001092  86.6146 320.1196 15.52987872  3670","EPOCH":"2022-02-18T20:00:01.000224","GP_ID":"196335153","REF_FRAME":"TEME"},{"APOAPSIS":"410.975","TLE_LINE1":"1 50846U 22001AV  22049.83334491 -.00654142  00000-0 -11458-1 0  9994","OBJECT_NAME":"STARLINK-3308","DECAY_DATE":null,"ARG_OF_PERICENTER":"38.3565","EPHEMERIS_TYPE":"0","ECCENTRICITY":"0.00015600","COUNTRY_CODE":"US","NORAD_CAT_ID":"50846","FILE":"3307132","CLASSIFICATION_TYPE":"U","BSTAR":"-0.01145800000000","CENTER_NAME":"EARTH","MEAN_MOTION_DDOT":"0.0000000000000","LAUNCH_DATE":"2022-01-06","TIME_SYSTEM":"UTC","PERIAPSIS":"408.857","ELEMENT_SET_NO":"999","REF_FRAME":"TEME","GP_ID":"196335903","EPOCH":"2022-02-18T20:00:01.000224","TLE_LINE2":"2 50846  53.2175 347.6944 0001560  38.3565 342.1086 15.52333845  3676","MEAN_ANOMALY":"342.1086","REV_AT_EPOCH":"367","OBJECT_ID":"2022-001AV","MEAN_MOTION_DOT":"-0.00654142","MEAN_ELEMENT_THEORY":"SGP4","OBJECT_TYPE":"PAYLOAD","INCLINATION":"53.2175","SEMIMAJOR_AXIS":"6788.051","RCS_SIZE":"LARGE","SITE":"AFETR","RA_OF_ASC_NODE":"347.6944","PERIOD":"92.764","MEAN_MOTION":"15.52333845"},{"CENTER_NAME":"EARTH","FILE":"3307132","BSTAR":"-0.01180100000000","CLASSIFICATION_TYPE":"U","TLE_LINE1":"1 50847U 22001AW  22049.83334491 -.00654075  00000-0 -11801-1 0  9992","OBJECT_NAME":"STARLINK-3319","APOAPSIS":"413.259","EPHEMERIS_TYPE":"0","ECCENTRICITY":"0.00014090","COUNTRY_CODE":"US","NORAD_CAT_ID":"50847","DECAY_DATE":null,"ARG_OF_PERICENTER":"47.0565","PERIAPSIS":"411.346","ELEMENT_SET_NO":"999","LAUNCH_DATE":"2022-01-06","MEAN_MOTION_DDOT":"0.0000000000000","TIME_SYSTEM":"UTC","TLE_LINE2":"2 50847  53.2175 347.6995 0001409  47.0565 284.1259 15.51515469  3672","OBJECT_ID":"2022-001AW","MEAN_ANOMALY":"284.1259","REV_AT_EPOCH":"367","GP_ID":"196335651","REF_FRAME":"TEME","EPOCH":"2022-02-18T20:00:01.000224","RA_OF_ASC_NODE":"347.6995","SITE":"AFETR","PERIOD":"92.812","MEAN_MOTION":"15.51515469","MEAN_ELEMENT_THEORY":"SGP4","MEAN_MOTION_DOT":"-0.00654075","SEMIMAJOR_AXIS":"6790.438","RCS_SIZE":"LARGE","OBJECT_TYPE":"PAYLOAD","INCLINATION":"53.2175"},{"DECAY_DATE":null,"ARG_OF_PERICENTER":"42.5357","EPHEMERIS_TYPE":"0","ECCENTRICITY":"0.00014410","COUNTRY_CODE":"US","NORAD_CAT_ID":"50848","APOAPSIS":"410.553","TLE_LINE1":"1 50848U 22001AX  22049.83334491 -.00654042  00000-0 -11408-1 0  9990","OBJECT_NAME":"STARLINK-3315","FILE":"3307132","BSTAR":"-0.01140800000000","CLASSIFICATION_TYPE":"U","CENTER_NAME":"EARTH","TIME_SYSTEM":"UTC","MEAN_MOTION_DDOT":"0.0000000000000","LAUNCH_DATE":"2022-01-06","ELEMENT_SET_NO":"999","PERIAPSIS":"408.597","EPOCH":"2022-02-18T20:00:01.000224","REF_FRAME":"TEME","GP_ID":"196334902","REV_AT_EPOCH":"367","MEAN_ANOMALY":"344.8292","OBJECT_ID":"2022-001AX","TLE_LINE2":"2 50848  53.2175 347.6934 0001441  42.5357 344.8292 15.52450724  3675","OBJECT_TYPE":"PAYLOAD","INCLINATION":"53.2175","SEMIMAJOR_AXIS":"6787.710","RCS_SIZE":"LARGE","MEAN_ELEMENT_THEORY":"SGP4","MEAN_MOTION_DOT":"-0.00654042","PERIOD":"92.757","MEAN_MOTION":"15.52450724","SITE":"AFETR","RA_OF_ASC_NODE":"347.6934"}];
